[{"OBJECT_NAME":"COSMOS 2571","OBJECT_ID":"2023-165C","EPOCH":"2026-03-09T19:25:49.566144","MEAN_MOTION":13.97323702,"ECCENTRICITY":0.0010141,"INCLINATION":67.1509,"RA_OF_ASC_NODE":169.1542,"ARG_OF_PERICENTER":25.0362,"MEAN_ANOMALY":335.1212,"EPHEMERIS_TYPE":0,"CLASSIFICATION_TYPE":"U","NORAD_CAT_ID":58172,"ELEMENT_SET_NO":999,"REV_AT_EPOCH":12047,"BSTAR":5.9518e-5,"MEAN_MOTION_DOT":8.0e-8,"MEAN_MOTION_DDOT":0},{"OBJECT_NAME":"FENGYUN 1C DEB","OBJECT_ID":"1999-025X","EPOCH":"2026-03-09T02:35:04.910208","MEAN_MOTION":12.96604756,"ECCENTRICITY":0.05636502,"INCLINATION":99.2146,"RA_OF_ASC_NODE":116.0301,"ARG_OF_PERICENTER":2.7664,"MEAN_ANOMALY":21.6115,"EPHEMERIS_TYPE":0,"CLASSIFICATION_TYPE":"U","NORAD_CAT_ID":29733,"ELEMENT_SET_NO":999,"REV_AT_EPOCH":90239,"BSTAR":0.0015095787,"MEAN_MOTION_DOT":8.65e-6,"MEAN_MOTION_DDOT":0}]
